$$SOE
2460154.500000000, A.D. 2023-Jul-29 00:00:00.0000, 6.446003362363384E+07, 3.407057982662958E+08, -1.628471917714281E+07,
2460161.500000000, A.D. 2023-Aug-05 00:00:00.0000, 5.290593408169084E+07, 3.415733294846319E+08, -1.750921009728543E+07,
2460168.500000000, A.D. 2023-Aug-12 00:00:00.0000, 4.128996092310456E+07, 3.420408763299244E+08, -1.871319369682606E+07,
2460175.500000000, A.D. 2023-Aug-19 00:00:00.0000, 2.962526482542372E+07, 3.421041968175417E+08, -1.989505766699035E+07,
2460182.500000000, A.D. 2023-Aug-26 00:00:00.0000, 1.792529762449256E+07, 3.417594256006717E+08, -2.105318460751659E+07,
2460189.500000000, A.D. 2023-Sep-02 00:00:00.0000, 6.203807501225878E+06, 3.410030935654715E+08, -2.218595381735322E+07,
2460196.500000000, A.D. 2023-Sep-09 00:00:00.0000, -5.525166930810049E+06, 3.398321479195784E+08, -2.329174324935038E+07,
2460203.500000000, A.D. 2023-Sep-16 00:00:00.0000, -1.724730356014477E+07, 3.382439726736462E+08, -2.436893165532990E+07,
2460210.500000000, A.D. 2023-Sep-23 00:00:00.0000, -2.894800441236044E+07, 3.362364097522001E+08, -2.541590094210069E+07,
2460217.500000000, A.D. 2023-Sep-30 00:00:00.0000, -4.061240442059800E+07, 3.338077818678474E+08, -2.643103861597390E+07,
2460224.500000000, A.D. 2023-Oct-07 00:00:00.0000, -5.222538377684446E+07, 3.309569165485818E+08, -2.741274015010189E+07,
2460231.500000000, A.D. 2023-Oct-14 00:00:00.0000, -6.377158291655454E+07, 3.276831679146593E+08, -2.835941164301948E+07,
2460238.500000000, A.D. 2023-Oct-21 00:00:00.0000, -7.523541701039392E+07, 3.239864377146640E+08, -2.926947293576485E+07,
2460245.500000000, A.D. 2023-Oct-28 00:00:00.0000, -8.660109148003983E+07, 3.198671977882811E+08, -3.014136087714343E+07,
2460252.500000000, A.D. 2023-Nov-04 00:00:00.0000, -9.785261987067355E+07, 3.153265130713900E+08, -3.097353268773700E+07,
2460259.500000000, A.D. 2023-Nov-11 00:00:00.0000, -1.089738439808115E+08, 3.103660644125696E+08, -3.176446948766012E+07,
2460266.500000000, A.D. 2023-Nov-18 00:00:00.0000, -1.199484560998115E+08, 3.049881709900368E+08, -3.251268001058985E+07,
2460273.500000000, A.D. 2023-Nov-25 00:00:00.0000, -1.307600233423712E+08, 2.991958121860232E+08, -3.321670450229238E+07,
2460280.500000000, A.D. 2023-Dec-02 00:00:00.0000, -1.413920141103900E+08, 2.929926487259477E+08, -3.387511879751812E+07,
2460287.500000000, A.D. 2023-Dec-09 00:00:00.0000, -1.518278266589647E+08, 2.863830428345692E+08, -3.448653857727484E+07,
2460294.500000000, A.D. 2023-Dec-16 00:00:00.0000, -1.620508195216684E+08, 2.793720772300407E+08, -3.504962382314660E+07,
2460301.500000000, A.D. 2023-Dec-23 00:00:00.0000, -1.720443434693609E+08, 2.719655734452800E+08, -3.556308343563208E+07,
2460308.500000000, A.D. 2023-Dec-30 00:00:00.0000, -1.817917763441496E+08, 2.641701103180022E+08, -3.602567979724989E+07,
2460315.500000000, A.D. 2024-Jan-06 00:00:00.0000, -1.912765625164844E+08, 2.559930400706321E+08, -3.643623329704623E+07,
2460322.500000000, A.D. 2024-Jan-13 00:00:00.0000, -2.004822537377586E+08, 2.474424999331711E+08, -3.679362723341534E+07,
2460329.500000000, A.D. 2024-Jan-20 00:00:00.0000, -2.093925500983868E+08, 2.385274221415372E+08, -3.709681293000420E+07,
2460336.500000000, A.D. 2024-Jan-27 00:00:00.0000, -2.179913430329297E+08, 2.292575427231900E+08, -3.734481480202751E+07,
2460343.500000000, A.D. 2024-Feb-03 00:00:00.0000, -2.262627606750562E+08, 2.196434078788955E+08, -3.753673538294805E+07,
2460350.500000000, A.D. 2024-Feb-10 00:00:00.0000, -2.341912151283265E+08, 2.096963774210075E+08, -3.767176032669307E+07,
2460357.500000000, A.D. 2024-Feb-17 00:00:00.0000, -2.417614513301896E+08, 1.994286250300097E+08, -3.774916336017988E+07,
2460364.500000000, A.D. 2024-Feb-24 00:00:00.0000, -2.489585972624638E+08, 1.888531351061365E+08, -3.776831114909901E+07,
2460371.500000000, A.D. 2024-Mar-02 00:00:00.0000, -2.557682152415691E+08, 1.779836959599924E+08, -3.772866804256503E+07,
2460378.500000000, A.D. 2024-Mar-09 00:00:00.0000, -2.621763538843867E+08, 1.668348890766027E+08, -3.762980067481536E+07,
2460385.500000000, A.D. 2024-Mar-16 00:00:00.0000, -2.681696000586966E+08, 1.554220744726163E+08, -3.747138240393497E+07,
2460392.500000000, A.D. 2024-Mar-23 00:00:00.0000, -2.737351305951910E+08, 1.437613731051739E+08, -3.725319744606820E+07,
2460399.500000000, A.D. 2024-Mar-30 00:00:00.0000, -2.788607656500719E+08, 1.318696461853299E+08, -3.697514445993860E+07,
2460406.500000000, A.D. 2024-Apr-06 00:00:00.0000, -2.835350230867578E+08, 1.197644679465439E+08, -3.663723983899778E+07,
2460413.500000000, A.D. 2024-Apr-13 00:00:00.0000, -2.877471699168522E+08, 1.074640926591903E+08, -3.623962092316631E+07,
2460420.500000000, A.D. 2024-Apr-20 00:00:00.0000, -2.914872713251063E+08, 9.498741855057727E+07, -3.578254877688485E+07,
2460427.500000000, A.D. 2024-Apr-27 00:00:00.0000, -2.947462383718745E+08, 8.235394809853701E+07, -3.526641039998017E+07,
2460434.500000000, A.D. 2024-May-04 00:00:00.0000, -2.975158738558351E+08, 6.958374408116956E+07, -3.469172040045512E+07,
2460441.500000000, A.D. 2024-May-11 00:00:00.0000, -2.997889156627927E+08, 5.669738141525909E+07, -3.405912212390045E+07,
2460448.500000000, A.D. 2024-May-18 00:00:00.0000, -3.015590770881179E+08, 4.371589498715553E+07, -3.336938821325196E+07,
2460455.500000000, A.D. 2024-May-25 00:00:00.0000, -3.028210836913685E+08, 3.066072370162095E+07, -3.262342057475907E+07,
2460462.500000000, A.D. 2024-Jun-01 00:00:00.0000, -3.035707062263544E+08, 1.755365097426647E+07, -3.182224973888644E+07,
2460469.500000000, A.D. 2024-Jun-08 00:00:00.0000, -3.038047890293312E+08, 4.416741976293882E+06, -3.096703362500964E+07,
2460476.500000000, A.D. 2024-Jun-15 00:00:00.0000, -3.035212731265631E+08, -8.727721446121182E+06, -3.005905569251859E+07,
2460483.500000000, A.D. 2024-Jun-22 00:00:00.0000, -3.027192147649671E+08, -2.185730658470362E+07, -2.909972228719209E+07,
2460490.500000000, A.D. 2024-Jun-29 00:00:00.0000, -3.013988012335033E+08, -3.494949778243683E+07, -2.809055914216140E+07,
2460497.500000000, A.D. 2024-Jul-06 00:00:00.0000, -2.995613611326225E+08, -4.798176843328635E+07, -2.703320749168904E+07,
2460504.500000000, A.D. 2024-Jul-13 00:00:00.0000, -2.972093669947498E+08, -6.093165372825905E+07, -2.592941976470332E+07,
2460511.500000000, A.D. 2024-Jul-20 00:00:00.0000, -2.943464321404148E+08, -7.377682246725236E+07, -2.478105460552880E+07,
2460518.500000000, A.D. 2024-Jul-27 00:00:00.0000, -2.909773023880094E+08, -8.649514836276461E+07, -2.359007127244882E+07,
2460525.500000000, A.D. 2024-Aug-03 00:00:00.0000, -2.871078423786277E+08, -9.906478067531087E+07, -2.235852351148625E+07,
2460532.500000000, A.D. 2024-Aug-10 00:00:00.0000, -2.827450164486033E+08, -1.114642136498315E+08, -2.108855296791115E+07,
2460539.500000000, A.D. 2024-Aug-17 00:00:00.0000, -2.778968641577693E+08, -1.236723542057681E+08, -1.978238218825244E+07,
2460546.500000000, A.D. 2024-Aug-24 00:00:00.0000, -2.725724706544514E+08, -1.356685873949622E+08, -1.844230726996488E+07,
2460553.500000000, A.D. 2024-Aug-31 00:00:00.0000, -2.667819320169527E+08, -1.474328392062342E+08, -1.707069022878464E+07,
2460560.500000000, A.D. 2024-Sep-07 00:00:00.0000, -2.605363155021575E+08, -1.589456361464061E+08, -1.566995116370453E+07,
2460567.500000000, A.D. 2024-Sep-14 00:00:00.0000, -2.538476149556270E+08, -1.701881602104304E+08, -1.424256020745410E+07,
2460574.500000000, A.D. 2024-Sep-21 00:00:00.0000, -2.467287038012995E+08, -1.811422984928278E+08, -1.279102910943210E+07,
2460581.500000000, A.D. 2024-Sep-28 00:00:00.0000, -2.391932865356339E+08, -1.917906903846283E+08, -1.131790273897667E+07,
2460588.500000000, A.D. 2024-Oct-05 00:00:00.0000, -2.312558455281062E+08, -2.021167721166329E+08, -9.825750911293268E+06,
2460595.500000000, A.D. 2024-Oct-12 00:00:00.0000, -2.229315839722949E+08, -2.121048154751683E+08, -8.317160319320321E+06,
2460602.500000000, A.D. 2024-Oct-19 00:00:00.0000, -2.142363672201780E+08, -2.217399608171680E+08, -6.794726487927958E+06,
2460609.500000000, A.D. 2024-Oct-26 00:00:00.0000, -2.051866630084904E+08, -2.310082450991755E+08, -5.261045864876285E+06,
2460616.500000000, A.D. 2024-Nov-02 00:00:00.0000, -1.957994807916031E+08, -2.398966250427781E+08, -3.718708133944392E+06,
2460623.500000000, A.D. 2024-Nov-09 00:00:00.0000, -1.860923105512002E+08, -2.483929954465315E+08, -2.170288803426743E+06,
2460630.500000000, A.D. 2024-Nov-16 00:00:00.0000, -1.760830615112577E+08, -2.564862027224767E+08, -6.183421129877567E+05,
2460637.500000000, A.D. 2024-Nov-23 00:00:00.0000, -1.657900011436611E+08, -2.641660538281366E+08, 9.346056977044344E+05,
2460644.500000000, A.D. 2024-Nov-30 00:00:00.0000, -1.552316946610351E+08, -2.714233207979329E+08, 2.486062706231952E+06,
2460651.500000000, A.D. 2024-Dec-07 00:00:00.0000, -1.444269449521822E+08, -2.782497406509921E+08, 4.033577182057559E+06,
2460658.500000000, A.D. 2024-Dec-14 00:00:00.0000, -1.333947339905896E+08, -2.846380096790735E+08, 5.574743162657827E+06,
2460665.500000000, A.D. 2024-Dec-21 00:00:00.0000, -1.221541683397471E+08, -2.905817736076932E+08, 7.107205828349829E+06,
2460672.500000000, A.D. 2024-Dec-28 00:00:00.0000, -1.107244270509065E+08, -2.960756168737202E+08, 8.628666243121743E+06,
2460679.500000000, A.D. 2025-Jan-04 00:00:00.0000, -9.912470958963902E+07, -3.011150489385392E+08, 1.013688541348483E+07,
2460686.500000000, A.D. 2025-Jan-11 00:00:00.0000, -8.737418580988641E+07, -3.056964862810400E+08, 1.162968796914966E+07,
2460693.500000000, A.D. 2025-Jan-18 00:00:00.0000, -7.549194905229983E+07, -3.098172312966948E+08, 1.310496547982527E+07,
2460700.500000000, A.D. 2025-Jan-25 00:00:00.0000, -6.349697224709806E+07, -3.134754488848596E+08, 1.456067935576694E+07,
2460707.500000000, A.D. 2025-Feb-01 00:00:00.0000, -5.140806692022883E+07, -3.166701410586656E+08, 1.599486332365695E+07,
2460714.500000000, A.D. 2025-Feb-08 00:00:00.0000, -3.924384509871129E+07, -3.194011198580304E+08, 1.740562548794405E+07,
$$EOE